{
  "type": "FeatureCollection",
  "features": [
    {
      "type": "Feature",
      "properties": {
        "norad_id": 31663,
        "name": "FENGYUN 1C DEB",
        "group": "fengyun-1c-debris",
        "lat": 8.391487698198759,
        "lon": -91.16636638366941,
        "alt_km": 775.3448891079497,
        "timestamp": "2025-12-26T22:28:06.068104+00:00",
        "meta_object_name": "FENGYUN 1C DEB",
        "meta_object_id": "1999-025CBV",
        "meta_epoch": "2025-12-24T00:29:19.607712",
        "meta_mean_motion": 14.76454332,
        "meta_eccentricity": 0.01900004,
        "meta_inclination": 98.8389,
        "meta_ra_of_asc_node": 266.9581,
        "meta_arg_of_pericenter": 201.7959,
        "meta_mean_anomaly": 157.5086,
        "meta_ephemeris_type": 0,
        "meta_classification_type": "U",
        "meta_norad_cat_id": 31663,
        "meta_element_set_no": 999,
        "meta_rev_at_epoch": 99446,
        "meta_bstar": 0.00025673449,
        "meta_mean_motion_dot": 2.328e-05,
        "meta_mean_motion_ddot": 0,
        "tle_line1": "1 31663U 99025CBV 25358.02036583  .00002328  00000+0  25673-3 0  9994",
        "tle_line2": "2 31663  98.8389 266.9581 0190000 201.7959 157.5086 14.76454332994469"
      },
      "geometry": {
        "type": "Point",
        "coordinates": [
          -91.16636638366941,
          8.391487698198759
        ]
      }
    },
    {
      "type": "Feature",
      "properties": {
        "norad_id": 31664,
        "name": "FENGYUN 1C DEB",
        "group": "fengyun-1c-debris",
        "lat": 53.939216824310066,
        "lon": -20.141951165376398,
        "alt_km": 811.2346681467989,
        "timestamp": "2025-12-26T22:28:06.068114+00:00",
        "meta_object_name": "FENGYUN 1C DEB",
        "meta_object_id": "1999-025CBW",
        "meta_epoch": "2025-12-25T22:22:15.892032",
        "meta_mean_motion": 14.10311939,
        "meta_eccentricity": 0.012535,
        "meta_inclination": 98.7525,
        "meta_ra_of_asc_node": 351.0949,
        "meta_arg_of_pericenter": 120.8922,
        "meta_mean_anomaly": 240.4646,
        "meta_ephemeris_type": 0,
        "meta_classification_type": "U",
        "meta_norad_cat_id": 31664,
        "meta_element_set_no": 999,
        "meta_rev_at_epoch": 96187,
        "meta_bstar": 0.00029953,
        "meta_mean_motion_dot": 5.3e-06,
        "meta_mean_motion_ddot": 0,
        "tle_line1": "1 31664U 99025CBW 25359.93212838  .00000530  00000+0  29953-3 0  9993",
        "tle_line2": "2 31664  98.7525 351.0949 0125350 120.8922 240.4646 14.10311939961878"
      },
      "geometry": {
        "type": "Point",
        "coordinates": [
          -20.141951165376398,
          53.939216824310066
        ]
      }
    },
    {
      "type": "Feature",
      "properties": {
        "norad_id": 31665,
        "name": "FENGYUN 1C DEB",
        "group": "fengyun-1c-debris",
        "lat": -43.036352657074104,
        "lon": -145.483153401924,
        "alt_km": 915.5454366670883,
        "timestamp": "2025-12-26T22:28:06.068125+00:00",
        "meta_object_name": "FENGYUN 1C DEB",
        "meta_object_id": "1999-025CBX",
        "meta_epoch": "2025-12-16T08:14:19.517280",
        "meta_mean_motion": 13.84829693,
        "meta_eccentricity": 0.01897318,
        "meta_inclination": 98.4487,
        "meta_ra_of_asc_node": 32.9474,
        "meta_arg_of_pericenter": 177.2489,
        "meta_mean_anomaly": 182.9759,
        "meta_ephemeris_type": 0,
        "meta_classification_type": "U",
        "meta_norad_cat_id": 31665,
        "meta_element_set_no": 999,
        "meta_rev_at_epoch": 93241,
        "meta_bstar": 0.0010116548,
        "meta_mean_motion_dot": 1.275e-05,
        "meta_mean_motion_ddot": 0,
        "tle_line1": "1 31665U 99025CBX 25350.34328145  .00001275  00000+0  10117-2 0  9997",
        "tle_line2": "2 31665  98.4487  32.9474 0189731 177.2489 182.9759 13.84829693932412"
      },
      "geometry": {
        "type": "Point",
        "coordinates": [
          -145.483153401924,
          -43.036352657074104
        ]
      }
    },
    {
      "type": "Feature",
      "properties": {
        "norad_id": 31666,
        "name": "FENGYUN 1C DEB",
        "group": "fengyun-1c-debris",
        "lat": -33.31214932667793,
        "lon": 156.56474608985138,
        "alt_km": 632.1674014307082,
        "timestamp": "2025-12-26T22:28:06.068146+00:00",
        "meta_object_name": "FENGYUN 1C DEB",
        "meta_object_id": "1999-025CBY",
        "meta_epoch": "2025-12-24T09:09:21.981024",
        "meta_mean_motion": 14.84587842,
        "meta_eccentricity": 0.00224944,
        "meta_inclination": 98.6568,
        "meta_ra_of_asc_node": 148.0463,
        "meta_arg_of_pericenter": 112.6663,
        "meta_mean_anomaly": 247.693,
        "meta_ephemeris_type": 0,
        "meta_classification_type": "U",
        "meta_norad_cat_id": 31666,
        "meta_element_set_no": 999,
        "meta_rev_at_epoch": 97444,
        "meta_bstar": 0.0041877062,
        "meta_mean_motion_dot": 0.0003563,
        "meta_mean_motion_ddot": 0,
        "tle_line1": "1 31666U 99025CBY 25358.38150441  .00035630  00000+0  41877-2 0  9991",
        "tle_line2": "2 31666  98.6568 148.0463 0022494 112.6663 247.6930 14.84587842974448"
      },
      "geometry": {
        "type": "Point",
        "coordinates": [
          156.56474608985138,
          -33.31214932667793
        ]
      }
    },
    {
      "type": "Feature",
      "properties": {
        "norad_id": 31667,
        "name": "FENGYUN 1C DEB",
        "group": "fengyun-1c-debris",
        "lat": -32.944153984204405,
        "lon": 27.441150098208183,
        "alt_km": 855.7160961603695,
        "timestamp": "2025-12-26T22:28:06.068157+00:00",
        "meta_object_name": "FENGYUN 1C DEB",
        "meta_object_id": "1999-025CBZ",
        "meta_epoch": "2025-12-19T08:58:22.158048",
        "meta_mean_motion": 14.23508815,
        "meta_eccentricity": 0.0051766,
        "meta_inclination": 99.0843,
        "meta_ra_of_asc_node": 205.588,
        "meta_arg_of_pericenter": 68.7145,
        "meta_mean_anomaly": 291.9549,
        "meta_ephemeris_type": 0,
        "meta_classification_type": "U",
        "meta_norad_cat_id": 31667,
        "meta_element_set_no": 999,
        "meta_rev_at_epoch": 56087,
        "meta_bstar": 0.00019687,
        "meta_mean_motion_dot": 4.07e-06,
        "meta_mean_motion_ddot": 0,
        "tle_line1": "1 31667U 99025CBZ 25353.37386757  .00000407  00000+0  19687-3 0  9996",
        "tle_line2": "2 31667  99.0843 205.5880 0051766  68.7145 291.9549 14.23508815560874"
      },
      "geometry": {
        "type": "Point",
        "coordinates": [
          27.441150098208183,
          -32.944153984204405
        ]
      }
    },
    {
      "type": "Feature",
      "properties": {
        "norad_id": 31672,
        "name": "FENGYUN 1C DEB",
        "group": "fengyun-1c-debris",
        "lat": -69.63099469993011,
        "lon": -15.680477851896917,
        "alt_km": 677.0983740273687,
        "timestamp": "2025-12-26T22:28:06.068168+00:00",
        "meta_object_name": "FENGYUN 1C DEB",
        "meta_object_id": "1999-025CCE",
        "meta_epoch": "2025-12-23T18:50:02.785344",
        "meta_mean_motion": 14.51067194,
        "meta_eccentricity": 0.01078417,
        "meta_inclination": 98.956,
        "meta_ra_of_asc_node": 186.1002,
        "meta_arg_of_pericenter": 308.5705,
        "meta_mean_anomaly": 50.5863,
        "meta_ephemeris_type": 0,
        "meta_classification_type": "U",
        "meta_norad_cat_id": 31672,
        "meta_element_set_no": 999,
        "meta_rev_at_epoch": 65031,
        "meta_bstar": 0.001730864,
        "meta_mean_motion_dot": 7.342e-05,
        "meta_mean_motion_ddot": 0,
        "tle_line1": "1 31672U 99025CCE 25357.78475446  .00007342  00000+0  17309-2 0  9998",
        "tle_line2": "2 31672  98.9560 186.1002 0107841 308.5705  50.5863 14.51067194650315"
      },
      "geometry": {
        "type": "Point",
        "coordinates": [
          -15.680477851896917,
          -69.63099469993011
        ]
      }
    },
    {
      "type": "Feature",
      "properties": {
        "norad_id": 31673,
        "name": "FENGYUN 1C DEB",
        "group": "fengyun-1c-debris",
        "lat": -9.406537680562955,
        "lon": -161.88628777060615,
        "alt_km": 703.6443375428908,
        "timestamp": "2025-12-26T22:28:06.068178+00:00",
        "meta_object_name": "FENGYUN 1C DEB",
        "meta_object_id": "1999-025CCF",
        "meta_epoch": "2025-12-26T07:25:09.304608",
        "meta_mean_motion": 14.31959541,
        "meta_eccentricity": 0.01252014,
        "meta_inclination": 99.3737,
        "meta_ra_of_asc_node": 195.8686,
        "meta_arg_of_pericenter": 10.0185,
        "meta_mean_anomaly": 350.3449,
        "meta_ephemeris_type": 0,
        "meta_classification_type": "U",
        "meta_norad_cat_id": 31673,
        "meta_element_set_no": 999,
        "meta_rev_at_epoch": 65085,
        "meta_bstar": 0.00022474304,
        "meta_mean_motion_dot": 6.04e-06,
        "meta_mean_motion_ddot": 0,
        "tle_line1": "1 31673U 99025CCF 25360.30913547  .00000604  00000+0  22474-3 0  9994",
        "tle_line2": "2 31673  99.3737 195.8686 0125201  10.0185 350.3449 14.31959541650853"
      },
      "geometry": {
        "type": "Point",
        "coordinates": [
          -161.88628777060615,
          -9.406537680562955
        ]
      }
    }
  ]
}